OBJECT_NAME,OBJECT_ID,EPOCH,MEAN_MOTION,ECCENTRICITY,INCLINATION,RA_OF_ASC_NODE,ARG_OF_PERICENTER,MEAN_ANOMALY,EPHEMERIS_TYPE,CLASSIFICATION_TYPE,NORAD_CAT_ID,ELEMENT_SET_NO,REV_AT_EPOCH,BSTAR,MEAN_MOTION_DOT,MEAN_MOTION_DDOT
ONEWEB-0620,2023-004X,2026-07-06T23:24:33.328800,13.11416838,.0002107,87.8876,17.1360,91.3252,268.8117,0,U,55161,999,16842,.15451E-2,.56E-5,0
ONEWEB-0621,2023-004Y,2026-07-06T22:13:44.289120,13.11414255,.0001837,87.8887,17.1364,82.2559,277.8778,0,U,55162,999,16839,-.84167E-3,-.286E-5,0
ONEWEB-0622,2023-004Z,2026-07-06T22:21:03.760128,13.11415206,.0002403,87.8889,17.1382,76.2774,283.8621,0,U,55163,999,16838,-.12128E-2,-.417E-5,0
ONEWEB-0623,2023-004AA,2026-07-06T21:55:19.883712,13.17647744,.0001989,87.9135,1.9533,67.5462,292.5880,0,U,55164,999,17018,.163E-3,.76E-6,0
ONEWEB-0624,2023-004AB,2026-07-06T22:23:32.564256,13.12928966,.0001794,87.8958,346.6550,89.8146,270.3188,0,U,55165,999,17066,-.97137E-3,-.339E-5,0
ONEWEB-0625,2023-004AC,2026-07-06T21:40:45.812064,13.17650118,.0001725,87.9137,1.9516,93.9983,266.1345,0,U,55166,999,17017,-.33959E-4,0,0
ONEWEB-0626,2023-004AD,2026-07-06T21:26:12.484320,13.17646112,.0002044,87.9133,1.9527,98.7775,261.3588,0,U,55167,999,17017,.26779E-2,.1053E-4,0
ONEWEB-0627,2023-004AE,2026-07-06T22:58:31.145088,13.17648401,.0001906,87.9138,1.9407,76.0102,284.1241,0,U,55168,999,17018,.14569E-3,.69E-6,0
ONEWEB-0628,2023-004AF,2026-07-06T22:07:18.297120,13.12442032,.0001756,87.8961,346.7285,72.4650,287.6671,0,U,55169,999,17062,-.92842E-3,-.321E-5,0
ONEWEB-0629,2023-004AG,2026-07-06T22:23:17.578176,13.17649378,.0001606,87.9136,1.9414,84.9919,275.1396,0,U,55170,999,17018,.41475E-4,.29E-6,0
ONEWEB-0631,2023-004AH,2026-07-06T21:43:34.241952,13.18686089,.000239,87.9187,331.5141,94.0738,266.0668,0,U,55171,999,17227,.3169E-4,.25E-6,0
ONEWEB-0709,2023-004AJ,2026-07-06T23:09:54.355680,13.11418107,.0002502,87.8878,17.1402,104.3355,255.8051,0,U,55172,999,16846,.10319E-2,.378E-5,0
ONEWEB-0710,2023-004AK,2026-07-06T20:54:35.129088,13.17647917,.0001954,87.9137,1.9489,86.8322,273.3033,0,U,55173,999,17017,.59969E-5,.15E-6,0
ONEWEB-0711,2023-004AL,2026-07-06T22:28:23.079072,13.11415735,.0002181,87.8881,17.1340,70.5793,289.5570,0,U,55174,999,16842,-.14787E-2,-.511E-5,0
ONEWEB-0713,2023-004AM,2026-07-06T22:55:15.112992,13.11418002,.0002018,87.8883,17.1321,78.3168,281.8187,0,U,55175,999,16841,-.36644E-3,-.117E-5,0
ONEWEB-0715,2023-004AN,2026-07-06T13:38:35.095200,13.11417514,.0002499,87.8881,17.2096,95.6509,264.4904,0,U,55176,999,16840,-.60687E-3,-.202E-5,0
ONEWEB-0716,2023-004AP,2026-07-06T22:34:12.688032,13.17648261,.0001703,87.9138,1.9378,96.8170,263.3155,0,U,55177,999,17018,.19535E-4,.2E-6,0
ONEWEB-0717,2023-004AQ,2026-07-06T22:09:55.667808,13.17649765,.0002273,87.9146,1.9309,79.7619,280.3769,0,U,55178,999,17023,.10003E-3,.52E-6,0
ONEWEB-0719,2023-004AR,2026-07-06T22:24:30.130848,13.17650882,.0001661,87.9147,1.9091,91.1351,268.9971,0,U,55179,999,17018,.31712E-3,.136E-5,0
ONEWEB-0530,2023-029A,2026-07-07T03:58:17.416704,13.20772696,.0001989,87.9181,270.4865,86.1630,273.9731,0,U,55796,999,16378,.15378E-3,.76E-6,0
ONEWEB-0534,2023-029B,2026-07-06T16:46:46.025184,13.20772937,.0001988,87.9184,270.5802,101.7368,258.3989,0,U,55797,999,16372,-.34213E-4,-.1E-7,0
ONEWEB-0556,2023-029C,2026-07-07T03:50:58.449408,13.20782024,.0001039,87.9178,270.4870,148.5507,211.5689,0,U,55798,999,16378,.34078E-2,.1399E-4,0
ONEWEB-0562,2023-029D,2026-07-06T16:37:04.981728,13.20772038,.0001607,87.9182,270.5614,75.9564,284.1748,0,U,55799,999,16372,-.68798E-4,-.15E-6,0
ONEWEB-0563,2023-029E,2026-07-06T16:29:47.584320,13.20773538,.0001986,87.9181,270.5928,106.2855,253.8497,0,U,55800,999,16371,-.10905E-3,-.31E-6,0
ONEWEB-0564,2023-029F,2026-07-06T16:20:07.427328,13.20771907,.0001871,87.9182,270.5679,88.9297,271.2050,0,U,55801,999,16372,-.9902E-4,-.27E-6,0
ONEWEB-0638,2023-029G,2026-07-06T17:26:51.200736,13.14555689,.0000616,87.8963,285.8565,91.4973,268.6227,0,U,55802,999,16196,-.28202E-1,-.10439E-3,0
ONEWEB-0639,2023-029H,2026-07-06T08:45:52.197408,13.19725457,.0002238,87.9186,301.1563,126.0602,234.0738,0,U,55803,999,16143,-.11065035E-3,-.31E-6,0
ONEWEB-0640,2023-029J,2026-07-06T15:50:57.225120,13.14501348,.0001361,87.8963,285.8607,110.6783,249.4493,0,U,55804,999,16197,.23648E-4,.22E-6,0
ONEWEB-0641,2023-029K,2026-07-06T08:39:03.235104,13.19726074,.00020067,87.9192,301.1479,105.4715,254.6639,0,U,55805,999,16144,.17047994E-3,.81E-6,0
ONEWEB-0642,2023-029L,2026-07-06T21:16:29.047584,13.19724367,.0002461,87.9188,301.0540,119.9371,240.2007,0,U,55806,999,16150,-.37553E-3,-.137E-5,0
ONEWEB-0643,2023-029M,2026-07-06T16:57:10.863072,13.14502396,.00025,87.8960,285.8389,112.5225,247.6169,0,U,55807,999,16195,.10153E-3,.5E-6,0
